     2.11           N: GPS NAV DATA                         RINEX VERSION / TYPE
teqc  2019Feb25                         20230504 17:04:43UTCPGM / RUN BY / DATE
Linux2.6.32-573.12.1.el6.x86_64|x86_64|gcc|Win64-MinGW64|=+ COMMENT
                                                            END OF HEADER
12 21 10  3 22  0  0.0-1.063882373273D-04-5.456968210638D-12 0.000000000000D+00
    9.800000000000D+01-3.387500000000D+01 4.727696927554D-09 8.602409031151D-02
   -1.788139343262D-06 8.257164387032D-03 5.280598998070D-06 5.153666631699D+03
    7.920000000000D+04-9.313225746155D-08-1.564982893694D+00 5.215406417847D-08
    9.716203085944D-01 2.834375000000D+02 1.230920500300D+00-8.387135072127D-09
   -4.675194740627D-10 1.000000000000D+00 2.178000000000D+03 0.000000000000D+00
    2.000000000000D+00 0.000000000000D+00-1.257285475731D-08 9.800000000000D+01
    7.201800000000D+04 4.000000000000D+00
24 21 10  3 22  0  0.0 2.473122440279D-04 6.934897101019D-12 0.000000000000D+00
    8.100000000000D+01 6.143750000000D+01 5.312364138433D-09 1.784731449343D+00
    3.192573785782D-06 1.167858438566D-02 8.869916200638D-06 5.153714036942D+03
    7.920000000000D+04-3.725290298462D-07-2.757485662815D+00 4.470348358154D-08
    9.350894652467D-01 1.961250000000D+02 7.620775127302D-01-8.481067556220D-09
    5.050210361533D-10 1.000000000000D+00 2.178000000000D+03 0.000000000000D+00
    2.800000000000D+00 0.000000000000D+00 2.793967723846D-09 8.100000000000D+01
    7.201800000000D+04 4.000000000000D+00
15 21 10  3 22  0  0.0-1.165661960840D-04 2.728484105319D-12 0.000000000000D+00
    6.600000000000D+01-9.134375000000D+01 4.999493963277D-09 2.757513361706D+00
   -4.783272743225D-06 1.375306025147D-02 1.104548573494D-05 5.153692953110D+03
    7.920000000000D+04 4.097819328308D-08 2.431998176909D+00-1.881271600723D-07
    9.296322219764D-01 1.505000000000D+02 1.034781448492D+00-8.006404927474D-09
   -1.185763677531D-10 1.000000000000D+00 2.178000000000D+03 0.000000000000D+00
    2.000000000000D+00 0.000000000000D+00-1.071020960808D-08 6.600000000000D+01
    7.201800000000D+04 4.000000000000D+00
23 21 10  3 22  0  0.0 4.957336932421D-05-4.774847184308D-12 0.000000000000D+00
    1.800000000000D+02-6.081250000000D+01 4.739125975048D-09 9.852522269100D-01
   -3.172084689140D-06 1.738632447086D-03 2.913177013397D-06 5.153675168991D+03
    7.920000000000D+04-1.862645149231D-09 1.478066413113D+00-5.587935447693D-09
    9.653164248924D-01 3.258750000000D+02 2.704743950665D+00-8.410350324849D-09
   -1.421487782100D-10 1.000000000000D+00 2.178000000000D+03 0.000000000000D+00
    2.000000000000D+00 0.000000000000D+00-8.381903171539D-09 9.480000000000D+02
    7.201800000000D+04 4.000000000000D+00
25 21 10  3 22  0  0.0 2.185991033912D-04 6.252776074689D-12 0.000000000000D+00
    1.090000000000D+02-2.540625000000D+01 5.088426239092D-09-6.929385194422D-02
   -1.298263669014D-06 9.848853340372D-03 4.645437002182D-06 5.153768112183D+03
    7.920000000000D+04-5.960464477539D-08-1.640124125753D+00 7.636845111847D-08
    9.590120628161D-01 2.873750000000D+02 9.642321714546D-01-8.621073388025D-09
   -4.346609625166D-10 1.000000000000D+00 2.178000000000D+03 0.000000000000D+00
    2.800000000000D+00 0.000000000000D+00 5.587935447693D-09 1.090000000000D+02
    7.201800000000D+04 4.000000000000D+00
10 21 10  3 22  0  0.0-2.163522876799D-04-7.958078640513D-12 0.000000000000D+00
    1.010000000000D+02-6.615625000000D+01 4.672337478753D-09-5.321386252297D-01
   -3.337860107422D-06 6.987029104494D-03 3.464519977570D-06 5.153672277451D+03
    7.920000000000D+04 4.470348358154D-08 1.502239133101D+00 1.005828380585D-07
    9.702944703279D-01 3.159062500000D+02-2.584413963261D+00-8.434279893041D-09
   -1.550064566411D-10 1.000000000000D+00 2.178000000000D+03 0.000000000000D+00
    2.000000000000D+00 0.000000000000D+00 2.328306436539D-09 1.010000000000D+02
    7.201800000000D+04 4.000000000000D+00
13 21 10  3 21 59 44.0 1.944308169186D-04 5.456968210638D-12 0.000000000000D+00
    6.000000000000D+00-5.546875000000D+01 4.121243094889D-09 3.108616989370D+00
   -2.956017851830D-06 5.529325339012D-03 1.261942088604D-05 5.153688791275D+03
    7.918400000000D+04 2.048909664154D-08 2.685091398846D+00-1.005828380585D-07
    9.687088690127D-01 1.417812500000D+02 9.684404879136D-01-7.648532877809D-09
    8.071764792832D-11 1.000000000000D+00 2.178000000000D+03 0.000000000000D+00
    2.000000000000D+00 0.000000000000D+00-1.117587089539D-08 6.000000000000D+00
    7.201800000000D+04 4.000000000000D+00
 5 21 10  3 22  0  0.0-5.647819489241D-05-1.250555214938D-12 0.000000000000D+00
    1.050000000000D+02-5.840625000000D+01 4.893060958486D-09-2.243034634413D+00
   -3.242865204811D-06 6.087595247664D-03 2.168118953705D-06 5.153594245911D+03
    7.920000000000D+04 8.754432201385D-08 1.466472288480D+00-5.215406417847D-08
    9.574208409696D-01 3.310312500000D+02 1.001812465419D+00-8.444280309598D-09
   -3.464430021702D-11 1.000000000000D+00 2.178000000000D+03 0.000000000000D+00
    2.000000000000D+00 0.000000000000D+00-1.117587089539D-08 1.050000000000D+02
    7.201800000000D+04 4.000000000000D+00
32 21 10  3 22  0  0.0-6.486196070910D-06-3.865352482535D-12 0.000000000000D+00
    7.400000000000D+01-5.950000000000D+01 4.394468761549D-09-1.896247513315D+00
   -3.099441528320D-06 5.104505806230D-03 1.204945147038D-05 5.153730714798D+03
    7.920000000000D+04 5.215406417847D-08 2.545046186749D+00-4.656612873077D-08
    9.578893317070D-01 1.442812500000D+02-2.380257492787D+00-7.837826476933D-09
    1.642925577302D-11 1.000000000000D+00 2.178000000000D+03 0.000000000000D+00
    2.000000000000D+00 0.000000000000D+00 4.656612873077D-10 7.400000000000D+01
    7.228800000000D+04 4.000000000000D+00
24 21 10  3 21 59 44.0 2.473145723343D-04 6.934897101019D-12 0.000000000000D+00
    0.000000000000D+00 6.143750000000D+01 5.312364138433D-09 1.782397171905D+00
    3.192573785782D-06 1.167857658584D-02 8.869916200638D-06 5.153714027405D+03
    7.918400000000D+04-3.725290298462D-07-2.757485525300D+00 4.470348358154D-08
    9.350894652467D-01 1.961250000000D+02 7.620781622658D-01-8.481067556220D-09
    5.050210361533D-10 1.000000000000D+00 2.178000000000D+03 0.000000000000D+00
    2.000000000000D+00 0.000000000000D+00 2.793967723846D-09 0.000000000000D+00
    7.276800000000D+04 4.000000000000D+00
25 21 10  3 21 59 44.0 2.185986377299D-04 6.139089236967D-12 0.000000000000D+00
    0.000000000000D+00-2.540625000000D+01 5.088426239092D-09-7.162796260929D-02
   -1.298263669014D-06 9.848854038864D-03 4.645437002182D-06 5.153768114090D+03
    7.918400000000D+04-5.960464477539D-08-1.640123986776D+00 7.636845111847D-08
    9.590120774453D-01 2.873750000000D+02 9.642326571434D-01-8.621073388025D-09
   -4.346609625166D-10 1.000000000000D+00 2.178000000000D+03 0.000000000000D+00
    2.000000000000D+00 0.000000000000D+00 5.587935447693D-09 0.000000000000D+00
    7.276800000000D+04 4.000000000000D+00
19 21 10  3 22  0  0.0 6.117392331362D-05 5.002220859751D-12 0.000000000000D+00
    4.800000000000D+01 1.321875000000D+01 3.697296864398D-09-2.166185414775D-01
    8.139759302139D-07 9.058439405635D-03 1.287646591663D-05 5.153660724640D+03
    7.920000000000D+04-2.253800630569D-07-4.830742283121D-01-1.341104507446D-07
    9.799772983423D-01 1.462187500000D+02 1.953411825775D+00-7.690320332710D-09
   -2.185805333280D-10 1.000000000000D+00 2.178000000000D+03 0.000000000000D+00
    2.000000000000D+00 0.000000000000D+00-1.536682248116D-08 4.800000000000D+01
    7.321800000000D+04 4.000000000000D+00
29 21 10  3 22  0  0.0-4.210057668388D-04-5.456968210638D-12 0.000000000000D+00
    8.100000000000D+01 1.115625000000D+01 3.666224141523D-09-2.609885475086D+00
    5.215406417847D-07 1.916533452459D-03 1.194328069687D-05 5.153579551697D+03
    7.920000000000D+04 2.421438694000D-08-5.153492937495D-01 4.284083843231D-08
    9.832522657521D-01 1.628437500000D+02 2.361255901478D+00-7.572101122691D-09
   -2.942979729776D-10 1.000000000000D+00 2.178000000000D+03 0.000000000000D+00
    2.800000000000D+00 0.000000000000D+00-1.024454832077D-08 8.100000000000D+01
    7.363200000000D+04 4.000000000000D+00
31 21 10  3 22  0  0.0-1.430772244930D-04-2.046363078989D-12 0.000000000000D+00
    5.200000000000D+01 5.984375000000D+01 4.985921969377D-09 3.527484010897D-01
    3.233551979065D-06 1.023244322278D-02 7.186084985733D-06 5.153616241455D+03
    7.920000000000D+04 1.098960638046D-07-2.659475735462D+00 1.229345798492D-07
    9.558575769505D-01 2.357812500000D+02 3.033830117030D-01-8.389635176266D-09
    4.085884479203D-10 1.000000000000D+00 2.178000000000D+03 0.000000000000D+00
    2.000000000000D+00 0.000000000000D+00-1.303851604462D-08 5.200000000000D+01
    7.759800000000D+04 4.000000000000D+00
25 21 10  3 23 59 44.0 2.186433412135D-04 6.139089236967D-12 0.000000000000D+00
    4.000000000000D+00-2.625000000000D+01 5.144857161095D-09 9.785473441961D-01
   -1.335516571999D-06 9.848065325059D-03 4.451721906662D-06 5.153766361237D+03
    8.638400000000D+04-8.754432201385D-08-1.640186113981D+00 9.685754776001D-08
    9.590089614298D-01 2.938125000000D+02 9.641853127256D-01-8.613930233341D-09
   -4.193031799462D-10 1.000000000000D+00 2.178000000000D+03 0.000000000000D+00
    2.000000000000D+00 0.000000000000D+00 5.587935447693D-09 4.000000000000D+00
    7.921800000000D+04 4.000000000000D+00
12 21 10  4  0  0  0.0-1.064278185368D-04-5.456968210638D-12 0.000000000000D+00
    1.200000000000D+02-3.256250000000D+01 4.766627120581D-09 1.136253130098D+00
   -1.810491085052D-06 8.256473112851D-03 5.094334483147D-06 5.153665170670D+03
    8.640000000000D+04-1.583248376846D-07-1.565043322451D+00-3.725290298462D-09
    9.716169292537D-01 2.889062500000D+02 1.230878987073D+00-8.359276768859D-09
   -4.582333729736D-10 1.000000000000D+00 2.178000000000D+03 0.000000000000D+00
    2.000000000000D+00 0.000000000000D+00-1.257285475731D-08 1.200000000000D+02
    7.921800000000D+04 4.000000000000D+00
